[{"OBJECT_NAME":"STARLINK-33675","OBJECT_ID":"2025-065AA","EPOCH":"2026-03-09T19:39:43.619040","MEAN_MOTION":15.27549495,"ECCENTRICITY":0.00017055,"INCLINATION":43.0036,"RA_OF_ASC_NODE":105.9498,"ARG_OF_PERICENTER":275.2064,"MEAN_ANOMALY":84.8593,"EPHEMERIS_TYPE":0,"CLASSIFICATION_TYPE":"U","NORAD_CAT_ID":63423,"ELEMENT_SET_NO":999,"REV_AT_EPOCH":5286,"BSTAR":0.00073133696,"MEAN_MOTION_DOT":0.00019898,"MEAN_MOTION_DDOT":0},{"OBJECT_NAME":"HERMES-3","OBJECT_ID":"2025-052BR","EPOCH":"2026-03-09T22:30:01.073952","MEAN_MOTION":15.30039786,"ECCENTRICITY":0.00079928,"INCLINATION":97.3987,"RA_OF_ASC_NODE":324.6131,"ARG_OF_PERICENTER":112.9583,"MEAN_ANOMALY":247.2502,"EPHEMERIS_TYPE":0,"CLASSIFICATION_TYPE":"U","NORAD_CAT_ID":63835,"ELEMENT_SET_NO":999,"REV_AT_EPOCH":5486,"BSTAR":0.0006995793,"MEAN_MOTION_DOT":0.00020316,"MEAN_MOTION_DDOT":0}]
